NORAD_CAT_ID,OBJECT_NAME,OBJECT_TYPE,EPOCH,MEAN_MOTION,ECCENTRICITY,INCLINATION,RA_OF_ASC_NODE,ARG_OF_PERICENTER,MEAN_ANOMALY,BSTAR,MEAN_MOTION_DOT,MEAN_MOTION_DDOT,TLE_LINE0,TLE_LINE1,TLE_LINE2,SEMIMAJOR_AXIS,PERIOD,APOGEE,PERIGEE,DECAYED
52120.0,STARLINK-3534,PAYLOAD,2023-02-27 02:56:47,15.08841921,0.000115,53.218,6.6951,103.9251,256.1869,0.00036574,5.538e-05,0.0,0 STARLINK-3534,1 52120U 22029AJ  23058.12277424  .00005538  00000-0  36574-3 0  9991,2 52120  53.2180   6.6951 0001150 103.9251 256.1869 15.08841921 53741,6917.875,95.437,540.535,538.944,0.0
52120.0,STARLINK-3534,PAYLOAD,2023-02-27 04:32:10,15.08855662,0.0001063,53.2178,6.3964,99.0461,261.0652,0.00087014,0.00013593,0.0,0 STARLINK-3534,1 52120U 22029AJ  23058.18901252  .00013593  00000-0  87014-3 0  9995,2 52120  53.2178   6.3964 0001063  99.0461 261.0652 15.08855662 53753,6917.833,95.437,540.433,538.962,0.0
52120.0,STARLINK-3534,PAYLOAD,2023-02-27 20:26:01,15.08889121,0.0001061,53.2177,3.4231,89.7689,270.3425,0.0017423,0.00027587,0.0,0 STARLINK-3534,1 52120U 22029AJ  23058.85140087  .00027587  00000-0  17423-2 0  9994,2 52120  53.2177   3.4231 0001061  89.7689 270.3425 15.08889121 53852,6917.73,95.434,540.329,538.861,0.0
52120.0,STARLINK-3534,PAYLOAD,2023-02-28 02:47:32,15.08924121,0.0001142,53.2176,2.2346,81.4827,278.6294,0.0026615,0.00042423,0.0,0 STARLINK-3534,1 52120U 22029AJ  23059.11634778  .00042423  00000-0  26615-2 0  9998,2 52120  53.2176   2.2346 0001142  81.4827 278.6294 15.08924121 53897,6917.623,95.432,540.278,538.698,0.0
52120.0,STARLINK-3534,PAYLOAD,2023-02-28 20:16:46,15.08852478,2.02e-05,53.2177,358.9626,4.7623,355.3371,0.00073638,0.00011455,0.0,0 STARLINK-3534,1 52120U 22029AJ  23059.84498753  .00011455  00000-0  73638-3 0  9998,2 52120  53.2177 358.9626 0000202   4.7623 355.3371 15.08852478 54006,6917.842,95.437,539.847,539.568,0.0
52120.0,STARLINK-3534,PAYLOAD,2023-03-01 02:38:20,15.08805207,0.0001549,53.2179,357.7735,111.1299,248.9859,0.00094973,0.00014845,0.0,0 STARLINK-3534,1 52120U 22029AJ  23060.10995459  .00014845  00000-0  94973-3 0  9995,2 52120  53.2179 357.7735 0001549 111.1299 248.9859 15.08805207 54043,6917.987,95.44,540.923,538.78,0.0
52120.0,STARLINK-3534,PAYLOAD,2023-03-01 07:24:29,15.088244,0.0001402,53.2174,356.882,102.3279,257.787,0.0019861,0.00031449,0.0,0 STARLINK-3534,1 52120U 22029AJ  23060.30867712  .00031449  00000-0  19861-2 0  9998,2 52120  53.2174 356.8820 0001402 102.3279 257.7870 15.08824400 54071,6917.928,95.439,540.763,538.823,0.0
52120.0,STARLINK-3534,PAYLOAD,2023-03-02 02:29:08,15.08837474,0.0001433,53.218,353.3141,92.183,267.9326,0.0018408,0.00029128,0.0,0 STARLINK-3534,1 52120U 22029AJ  23061.10357109  .00029128  00000-0  18408-2 0  9998,2 52120  53.2180 353.3141 0001433  92.1830 267.9326 15.08837474 54196,6917.888,95.438,540.744,538.762,0.0
52120.0,STARLINK-3534,PAYLOAD,2023-03-02 19:58:23,15.08852867,0.0001575,53.2175,350.0435,96.1439,263.9733,0.0025751,0.00040948,0.0,0 STARLINK-3534,1 52120U 22029AJ  23061.83221633  .00040948  00000-0  25751-2 0  9992,2 52120  53.2175 350.0435 0001575  96.1439 263.9733 15.08852867 54300,6917.841,95.437,540.796,538.617,0.0
52120.0,STARLINK-3534,PAYLOAD,2023-03-03 03:55:18,15.08858244,0.0001418,53.217,348.5558,90.9758,269.1397,0.0014036,0.00022132,0.0,0 STARLINK-3534,1 52120U 22029AJ  23062.16341285  .00022132  00000-0  14036-2 0  9994,2 52120  53.2170 348.5558 0001418  90.9758 269.1397 15.08858244 54359,6917.825,95.436,540.671,538.709,0.0
52120.0,STARLINK-3534,PAYLOAD,2023-03-03 18:13:47,15.08855311,0.0001367,53.2176,345.8809,107.5348,252.5793,0.0012241,0.00019255,0.0,0 STARLINK-3534,1 52120U 22029AJ  23062.75957194  .00019255  00000-0  12241-2 0  9999,2 52120  53.2176 345.8809 0001367 107.5348 252.5793 15.08855311 54445,6917.834,95.437,540.644,538.753,0.0
52120.0,STARLINK-3534,PAYLOAD,2023-03-03 19:49:10,15.08859021,0.0001365,53.2177,345.5834,105.9126,254.2017,0.0014178,0.0002236,0.0,0 STARLINK-3534,1 52120U 22029AJ  23062.82581098  .00022360  00000-0  14178-2 0  9995,2 52120  53.2177 345.5834 0001365 105.9126 254.2017 15.08859021 54456,6917.822,95.436,540.632,538.743,0.0
52120.0,STARLINK-3534,PAYLOAD,2023-03-04 03:46:05,15.08877333,9.4e-05,53.2173,344.0949,93.0495,267.0605,0.0014544,0.00022958,0.0,0 STARLINK-3534,1 52120U 22029AJ  23063.15700485  .00022958  00000-0  14544-2 0  9995,2 52120  53.2173 344.0949 0000940  93.0495 267.0605 15.08877333 54504,6917.766,95.435,540.282,538.981,0.0
52120.0,STARLINK-3534,PAYLOAD,2023-03-04 18:04:33,15.08841885,0.0001055,53.2167,341.4186,107.1892,252.9216,0.00057541,8.882e-05,0.0,0 STARLINK-3534,1 52120U 22029AJ  23063.75317099  .00008882  00000-0  57541-3 0  9991,2 52120  53.2167 341.4186 0001055 107.1892 252.9216 15.08841885 54590,6917.875,95.437,540.469,539.01,0.0
52120.0,STARLINK-3534,PAYLOAD,2023-03-05 02:01:29,15.08842802,0.0001043,53.2168,339.9335,111.0539,249.0565,0.0014171,0.00022339,0.0,0 STARLINK-3534,1 52120U 22029AJ  23064.08437291  .00022339  00000-0  14171-2 0  9999,2 52120  53.2168 339.9335 0001043 111.0539 249.0565 15.08842802 54648,6917.872,95.437,540.458,539.015,0.0
52120.0,STARLINK-3534,PAYLOAD,2023-03-06 00:16:54,15.08857066,0.000114,53.2169,335.7705,118.9554,241.1553,0.0020886,0.00033124,0.0,0 STARLINK-3534,1 52120U 22029AJ  23065.01173777  .00033124  00000-0  20886-2 0  9993,2 52120  53.2169 335.7705 0001140 118.9554 241.1553 15.08857066 54788,6917.828,95.436,540.482,538.905,0.0
52120.0,STARLINK-3534,PAYLOAD,2023-03-06 03:27:40,15.08876981,9.33e-05,53.2169,335.1742,90.9387,269.1712,0.0028882,0.00046025,0.0,0 STARLINK-3534,1 52120U 22029AJ  23065.14421568  .00046025  00000-0  28882-2 0  9999,2 52120  53.2169 335.1742 0000933  90.9387 269.1712 15.08876981 54802,6917.767,95.435,540.278,538.987,0.0
52120.0,STARLINK-3534,PAYLOAD,2023-03-06 17:46:09,15.08834068,0.0001393,53.2166,332.4986,103.2273,256.8874,0.0018266,0.00028897,0.0,0 STARLINK-3534,1 52120U 22029AJ  23065.74038277  .00028897  00000-0  18266-2 0  9998,2 52120  53.2166 332.4986 0001393 103.2273 256.8874 15.08834068 54893,6917.899,95.438,540.727,538.8,0.0
52120.0,STARLINK-3534,PAYLOAD,2023-03-07 03:18:27,15.08866324,0.0001426,53.2177,330.7141,78.2364,281.8788,0.0020154,0.00031956,0.0,0 STARLINK-3534,1 52120U 22029AJ  23066.13781947  .00031956  00000-0  20154-2 0  9990,2 52120  53.2177 330.7141 0001426  78.2364 281.8788 15.08866324 54957,6917.8,95.436,540.651,538.678,0.0
52120.0,STARLINK-3534,PAYLOAD,2023-03-08 03:09:14,15.08872695,0.000126,53.2172,326.2528,79.3359,280.7775,0.0020544,0.00032589,0.0,0 STARLINK-3534,1 52120U 22029AJ  23067.13141637  .00032589  00000-0  20544-2 0  9993,2 52120  53.2172 326.2528 0001260  79.3359 280.7775 15.08872695 55103,6917.78,95.435,540.517,538.774,0.0
52120.0,STARLINK-3534,PAYLOAD,2023-03-08 17:27:43,15.08830154,0.0001462,53.2166,323.577,85.5612,274.5547,0.0025401,0.00040359,0.0,0 STARLINK-3534,1 52120U 22029AJ  23067.72758630  .00040359  00000-0  25401-2 0  9996,2 52120  53.2166 323.5770 0001462  85.5612 274.5547 15.08830154 55191,6917.91,95.438,540.787,538.764,0.0
52120.0,STARLINK-3534,PAYLOAD,2023-03-09 17:18:30,15.08870752,0.0001339,53.2157,319.1176,71.7249,288.3889,0.0022216,0.00035276,0.0,0 STARLINK-3534,1 52120U 22029AJ  23068.72118400  .00035276  00000-0  22216-2 0  9995,2 52120  53.2157 319.1176 0001339  71.7249 288.3889 15.08870752 55345,6917.786,95.436,540.578,538.725,0.0
52120.0,STARLINK-3534,PAYLOAD,2023-03-09 22:04:39,15.08870999,0.0001255,53.2167,318.2258,69.7691,290.3436,0.0015636,0.00024705,0.0,0 STARLINK-3534,1 52120U 22029AJ  23068.91990050  .00024705  00000-0  15636-2 0  9998,2 52120  53.2167 318.2258 0001255  69.7691 290.3436 15.08870999 55379,6917.786,95.436,540.519,538.782,0.0
52120.0,STARLINK-3534,PAYLOAD,2023-03-10 09:12:21,15.08861378,0.0001134,53.2154,316.1442,60.6312,299.4793,0.00068226,0.00010593,0.0,0 STARLINK-3534,1 52120U 22029AJ  23069.38357941  .00010593  00000-0  68226-3 0  9990,2 52120  53.2154 316.1442 0001134  60.6312 299.4793 15.08861378 55448,6917.815,95.436,540.465,538.896,0.0
52120.0,STARLINK-3534,PAYLOAD,2023-03-10 17:09:17,15.08816505,0.0001133,53.2163,314.6571,93.9296,266.1825,-2.6827e-05,-7.14e-06,0.0,0 STARLINK-3534,1 52120U 22029AJ  23069.71478684 -.00000714  00000-0 -26827-4 0  9993,2 52120  53.2163 314.6571 0001133  93.9296 266.1825 15.08816505 55497,6917.952,95.439,540.601,539.033,0.0
52120.0,STARLINK-3534,PAYLOAD,2023-03-10 20:20:03,15.08821182,0.0001263,53.2167,314.0642,105.5316,254.5816,0.00080989,0.00012618,0.0,0 STARLINK-3534,1 52120U 22029AJ  23069.84726818  .00012618  00000-0  80989-3 0  9994,2 52120  53.2167 314.0642 0001263 105.5316 254.5816 15.08821182 55512,6917.938,95.439,540.677,538.929,0.0
52120.0,STARLINK-3534,PAYLOAD,2023-03-11 01:06:13,15.08830081,9.98e-05,53.2165,313.1704,95.8096,264.301,0.0021409,0.00033939,0.0,0 STARLINK-3534,1 52120U 22029AJ  23070.04599012  .00033939  00000-0  21409-2 0  9992,2 52120  53.2165 313.1704 0000998  95.8096 264.3010 15.08830081 55545,6917.911,95.438,540.466,539.085,0.0
52120.0,STARLINK-3534,PAYLOAD,2023-03-12 02:32:23,15.08859186,9.01e-05,53.2152,308.4109,86.0032,274.1063,0.00098711,0.00015465,0.0,0 STARLINK-3534,1 52120U 22029AJ  23071.10582792  .00015465  00000-0  98711-3 0  9992,2 52120  53.2152 308.4109 0000901  86.0032 274.1063 15.08859186 55705,6917.822,95.436,540.31,539.063,0.0
52120.0,STARLINK-3534,PAYLOAD,2023-03-13 00:47:47,15.08854882,0.0001722,53.216,304.2466,73.5911,286.527,0.00074233,0.00011551,0.0,0 STARLINK-3534,1 52120U 22029AJ  23072.03319098  .00011551  00000-0  74233-3 0  9997,2 52120  53.2160 304.2466 0001722  73.5911 286.5270 15.08854882 55843,6917.835,95.437,540.891,538.509,0.0
52120.0,STARLINK-3534,PAYLOAD,2023-03-13 15:06:16,15.08830152,0.0001146,53.216,301.5696,85.546,274.5663,0.00049409,7.582e-05,0.0,0 STARLINK-3534,1 52120U 22029AJ  23072.62935532  .00007582  00000-0  49409-3 0  9995,2 52120  53.2160 301.5696 0001146  85.5460 274.5663 15.08830152 55937,6917.91,95.438,540.568,538.983,0.0
